NORAD_CAT_ID,OBJECT_NAME,OBJECT_TYPE,EPOCH,MEAN_MOTION,ECCENTRICITY,INCLINATION,RA_OF_ASC_NODE,ARG_OF_PERICENTER,MEAN_ANOMALY,BSTAR,MEAN_MOTION_DOT,MEAN_MOTION_DDOT,TLE_LINE0,TLE_LINE1,TLE_LINE2,SEMIMAJOR_AXIS,PERIOD,APOGEE,PERIGEE,DECAYED
52495.0,STARLINK-3905,PAYLOAD,2023-08-26 07:46:58,15.08838243,0.0001479,53.2171,247.737,91.7754,268.3408,7.475e-05,9.02e-06,0.0,0 STARLINK-3905,1 52495U 22049AW  23238.32428265  .00000902  00000-0  74750-4 0  9990,2 52495  53.2171 247.7370 0001479  91.7754 268.3408 15.08838243 72541,6917.886,95.438,540.774,538.728,0.0
52495.0,STARLINK-3905,PAYLOAD,2023-08-27 01:16:12,15.08840853,0.0001495,53.217,244.4657,92.9763,267.14,5.7918e-05,6.34e-06,0.0,0 STARLINK-3905,1 52495U 22049AW  23239.05292196  .00000634  00000-0  57918-4 0  9992,2 52495  53.2170 244.4657 0001495  92.9763 267.1400 15.08840853 72812,6917.878,95.438,540.777,538.709,0.0
52495.0,STARLINK-3905,PAYLOAD,2023-08-27 04:26:58,15.08838699,0.0001488,53.217,243.8705,94.7431,265.3732,3.7686e-05,3.12e-06,0.0,0 STARLINK-3905,1 52495U 22049AW  23239.18540448  .00000312  00000-0  37686-4 0  9995,2 52495  53.2170 243.8705 0001488  94.7431 265.3732 15.08838699 72670,6917.884,95.438,540.779,538.72,0.0
52495.0,STARLINK-3905,PAYLOAD,2023-08-28 01:06:59,15.08836919,0.0001476,53.217,240.0046,94.4577,265.6584,3.0016e-05,1.9e-06,0.0,0 STARLINK-3905,1 52495U 22049AW  23240.04652718  .00000190  00000-0  30016-4 0  9990,2 52495  53.2170 240.0046 0001476  94.4577 265.6584 15.08836919 72965,6917.89,95.438,540.776,538.734,0.0
52495.0,STARLINK-3905,PAYLOAD,2023-08-28 17:00:51,15.08837887,0.0001408,53.2168,237.0307,88.5112,271.6042,3.9851e-05,3.46e-06,0.0,0 STARLINK-3905,1 52495U 22049AW  23240.70892763  .00000346  00000-0  39851-4 0  9998,2 52495  53.2168 237.0307 0001408  88.5112 271.6042 15.08837887 72907,6917.887,95.438,540.726,538.778,0.0
52495.0,STARLINK-3905,PAYLOAD,2023-08-29 07:19:19,15.08841714,0.0001424,53.2167,234.3543,88.3888,271.7267,9.6034e-05,1.241e-05,0.0,0 STARLINK-3905,1 52495U 22049AW  23241.30508420  .00001241  00000-0  96034-4 0  9990,2 52495  53.2167 234.3543 0001424  88.3888 271.7267 15.08841714 73156,6917.875,95.437,540.725,538.755,0.0
52495.0,STARLINK-3905,PAYLOAD,2023-08-29 16:51:38,15.08835236,0.0001437,53.2165,232.5689,87.5759,272.5397,5.6788e-05,6.16e-06,0.0,0 STARLINK-3905,1 52495U 22049AW  23241.70252981  .00000616  00000-0  56788-4 0  9999,2 52495  53.2165 232.5689 0001437  87.5759 272.5397 15.08835236 73219,6917.895,95.438,540.754,538.766,0.0
52495.0,STARLINK-3905,PAYLOAD,2023-08-30 16:42:25,15.08839129,0.0001321,53.2169,228.1101,90.9861,269.1283,6.0092e-05,6.69e-06,0.0,0 STARLINK-3905,1 52495U 22049AW  23242.69612950  .00000669  00000-0  60092-4 0  9995,2 52495  53.2169 228.1101 0001321  90.9861 269.1283 15.08839129 73207,6917.883,95.438,540.662,538.834,0.0
52495.0,STARLINK-3905,PAYLOAD,2023-08-31 08:36:16,15.08846566,0.000136,53.2162,225.1367,85.0184,275.0963,5.9683e-05,6.62e-06,0.0,0 STARLINK-3905,1 52495U 22049AW  23243.35852456  .00000662  00000-0  59683-4 0  9993,2 52495  53.2162 225.1367 0001360  85.0184 275.0963 15.08846566 73469,6917.86,95.437,540.666,538.784,0.0
52495.0,STARLINK-3905,PAYLOAD,2023-08-31 22:54:45,15.08835263,0.0001248,53.2167,222.4599,88.0601,272.0534,6.5282e-05,7.51e-06,0.0,0 STARLINK-3905,1 52495U 22049AW  23243.95469138  .00000751  00000-0  65282-4 0  9991,2 52495  53.2167 222.4599 0001248  88.0601 272.0534 15.08835263 73556,6917.895,95.438,540.623,538.897,0.0
52495.0,STARLINK-3905,PAYLOAD,2023-09-01 10:02:27,15.08840612,0.0001587,53.2156,220.3791,81.716,278.4012,5.0234e-05,5.12e-06,0.0,0 STARLINK-3905,1 52495U 22049AW  23244.41837003  .00000512  00000-0  50234-4 0  9999,2 52495  53.2156 220.3791 0001587  81.7160 278.4012 15.08840612 73466,6917.879,95.438,540.841,538.646,0.0
52495.0,STARLINK-3905,PAYLOAD,2023-09-01 22:45:33,15.0879128,1.45e-05,53.2143,218.0025,339.6766,20.422,0.00069107,0.00010713,0.0,0 STARLINK-3905,1 52495U 22049AW  23244.94829892  .00010713  00000-0  69107-3 0  9996,2 52495  53.2143 218.0025 0000145 339.6766  20.4220 15.08791280 73701,6918.029,95.441,539.995,539.794,0.0
52495.0,STARLINK-3905,PAYLOAD,2023-09-02 08:17:51,15.08840736,0.0001739,53.2151,216.2155,90.11,270.0091,4.7375e-05,4.66e-06,0.0,0 STARLINK-3905,1 52495U 22049AW  23245.34572978  .00000466  00000-0  47375-4 0  9999,2 52495  53.2151 216.2155 0001739  90.1100 270.0091 15.08840736 73761,6917.878,95.438,540.946,538.54,0.0
52495.0,STARLINK-3905,PAYLOAD,2023-09-02 21:00:56,15.08838327,0.0001739,53.2145,213.8371,92.5677,267.5514,4.4343e-05,4.18e-06,0.0,0 STARLINK-3905,1 52495U 22049AW  23245.87565178  .00000418  00000-0  44343-4 0  9990,2 52495  53.2145 213.8371 0001739  92.5677 267.5514 15.08838327 73687,6917.886,95.438,540.954,538.547,0.0
52495.0,STARLINK-3905,PAYLOAD,2023-09-03 00:11:42,15.08835443,0.0001713,53.2147,213.2422,92.5964,267.5225,2.8425e-05,1.64e-06,0.0,0 STARLINK-3905,1 52495U 22049AW  23246.00813391  .00000164  00000-0  28425-4 0  9990,2 52495  53.2147 213.2422 0001713  92.5964 267.5225 15.08835443 73866,6917.894,95.438,540.944,538.574,0.0
52495.0,STARLINK-3905,PAYLOAD,2023-09-03 04:57:51,15.0884329,0.0001615,53.215,212.3499,91.4261,268.6916,0.0001018,1.333e-05,0.0,0 STARLINK-3905,1 52495U 22049AW  23246.20684790  .00001333  00000-0  10180-3 0  9998,2 52495  53.2150 212.3499 0001615  91.4261 268.6916 15.08843290 73894,6917.87,95.437,540.853,538.618,0.0
52495.0,STARLINK-3905,PAYLOAD,2023-09-03 14:30:11,15.08835821,0.0001411,53.2163,210.5665,91.8219,268.2935,5.8463e-05,6.43e-06,0.0,0 STARLINK-3905,1 52495U 22049AW  23246.60429399  .00000643  00000-0  58463-4 0  9994,2 52495  53.2163 210.5665 0001411  91.8219 268.2935 15.08835821 73959,6917.893,95.438,540.734,538.782,0.0
52495.0,STARLINK-3905,PAYLOAD,2023-09-03 22:27:07,15.08827261,0.0001496,53.2176,209.0808,95.4153,264.701,-6.8327e-06,-3.97e-06,0.0,0 STARLINK-3905,1 52495U 22049AW  23246.93550425 -.00000397  00000-0 -68327-5 0  9994,2 52495  53.2176 209.0808 0001496  95.4153 264.7010 15.08827261 74006,6917.919,95.438,540.819,538.749,0.0
52495.0,STARLINK-3905,PAYLOAD,2023-09-04 06:24:03,15.08827058,0.0001478,53.2173,207.5932,93.6009,266.5152,-5.7631e-05,-1.205e-05,0.0,0 STARLINK-3905,1 52495U 22049AW  23247.26670754 -.00001205  00000-0 -57631-4 0  9993,2 52495  53.2173 207.5932 0001478  93.6009 266.5152 15.08827058 73891,6917.92,95.438,540.807,538.762,0.0
52495.0,STARLINK-3905,PAYLOAD,2023-09-04 23:53:16,15.08872379,0.0001191,53.2177,204.3224,90.8216,269.2912,-0.00035205,-5.891e-05,0.0,0 STARLINK-3905,1 52495U 22049AW  23247.99533182 -.00005891  00000-0 -35205-3 0  9993,2 52495  53.2177 204.3224 0001191  90.8216 269.2912 15.08872379 74166,6917.781,95.436,540.47,538.823,0.0
52495.0,STARLINK-3905,PAYLOAD,2023-09-06 02:54:50,15.08838319,0.0001343,53.2174,199.267,91.608,268.5066,0.00017739,2.536e-05,0.0,0 STARLINK-3905,1 52495U 22049AW  23249.12141662  .00002536  00000-0  17739-3 0  9991,2 52495  53.2174 199.2670 0001343  91.6080 268.5066 15.08838319 74334,6917.886,95.438,540.68,538.821,0.0
52495.0,STARLINK-3905,PAYLOAD,2023-09-06 20:24:04,15.08846738,0.0001536,53.2176,195.9964,90.2199,269.8969,3.6405e-06,-2.3e-06,0.0,0 STARLINK-3905,1 52495U 22049AW  23249.85005751 -.00000230  00000-0  36405-5 0  9992,2 52495  53.2176 195.9964 0001536  90.2199 269.8969 15.08846738 74289,6917.86,95.437,540.787,538.662,0.0
52495.0,STARLINK-3905,PAYLOAD,2023-09-07 05:56:23,15.08846013,0.0001521,53.2174,194.2109,87.4821,272.6346,2.1621e-05,5.6e-07,0.0,0 STARLINK-3905,1 52495U 22049AW  23250.24749600  .00000056  00000-0  21621-4 0  9993,2 52495  53.2174 194.2109 0001521  87.4821 272.6346 15.08846013 74506,6917.862,95.437,540.779,538.675,0.0
52495.0,STARLINK-3905,PAYLOAD,2023-09-08 05:47:10,15.08844551,0.0001545,53.2171,189.7491,102.4258,257.6907,6.5877e-05,7.61e-06,0.0,0 STARLINK-3905,1 52495U 22049AW  23251.24109341  .00000761  00000-0  65877-4 0  9990,2 52495  53.2171 189.7491 0001545 102.4258 257.6907 15.08844551 74493,6917.866,95.437,540.8,538.663,0.0
52495.0,STARLINK-3905,PAYLOAD,2023-09-09 02:27:11,15.08841936,0.0001488,53.2183,185.8855,95.6119,264.5043,3.5263e-05,2.73e-06,0.0,0 STARLINK-3905,1 52495U 22049AW  23252.10221653  .00000273  00000-0  35263-4 0  9991,2 52495  53.2183 185.8855 0001488  95.6119 264.5043 15.08841936 74786,6917.874,95.437,540.769,538.71,0.0
52495.0,STARLINK-3905,PAYLOAD,2023-09-10 02:17:58,15.0883944,0.0001296,53.219,181.4278,93.6401,266.474,2.8793e-05,1.7e-06,0.0,0 STARLINK-3905,1 52495U 22049AW  23253.09582037  .00000170  00000-0  28793-4 0  9992,2 52495  53.2190 181.4278 0001296  93.6401 266.4740 15.08839440 74933,6917.882,95.438,540.644,538.851,0.0
52495.0,STARLINK-3905,PAYLOAD,2023-09-10 05:28:44,15.08842362,0.0001319,53.2179,180.8295,89.86,270.2543,2.6528e-05,1.34e-06,0.0,0 STARLINK-3905,1 52495U 22049AW  23253.22829861  .00000134  00000-0  26528-4 0  9990,2 52495  53.2179 180.8295 0001319  89.8600 270.2543 15.08842362 74791,6917.873,95.437,540.651,538.826,0.0
52495.0,STARLINK-3905,PAYLOAD,2023-09-11 05:19:32,15.08842394,0.0001252,53.218,176.3685,99.6553,260.458,7.4062e-05,8.91e-06,0.0,0 STARLINK-3905,1 52495U 22049AW  23254.22190055  .00000891  00000-0  74062-4 0  9993,2 52495  53.2180 176.3685 0001252  99.6553 260.4580 15.08842394 75101,6917.873,95.437,540.604,538.872,0.0
52495.0,STARLINK-3905,PAYLOAD,2023-09-11 11:41:05,15.08840901,0.0001306,53.2188,175.1782,77.6167,282.4972,2.0552e-05,3.9e-07,0.0,0 STARLINK-3905,1 52495U 22049AW  23254.48686368  .00000039  00000-0  20552-4 0  9997,2 52495  53.2188 175.1782 0001306  77.6167 282.4972 15.08840901 74987,6917.878,95.437,540.646,538.839,0.0
52495.0,STARLINK-3905,PAYLOAD,2023-09-12 01:59:33,15.0884047,0.0001215,53.2184,172.5022,86.0683,274.0448,5.2411e-05,5.46e-06,0.0,0 STARLINK-3905,1 52495U 22049AW  23255.08302471  .00000546  00000-0  52411-4 0  9996,2 52495  53.2184 172.5022 0001215  86.0683 274.0448 15.08840470 75232,6917.879,95.438,540.584,538.903,0.0
